ASTERIA                 
1 43020U 98067NH  18285.07886381  .00017071  00000-0  19725-3 0  9997
2 43020  51.6404 146.0628 0002019 235.5207 124.5597 15.62003727 50746
DELLINGR (RBLE)         
1 43021U 98067NJ  18285.10669595  .00009215  00000-0  12207-3 0  9997
2 43021  51.6384 149.2006 0001929 222.1834 137.9011 15.59075680 50704
OSIRIS-3U               
1 43027U 98067NL  18284.80517745  .00057601  00000-0  42993-3 0  9995
2 43027  51.6349 137.3609 0003662 212.4778 147.5996 15.72152158 50714
AEROCUBE 7B             
1 43042U 17071F   18285.18308159  .00003831  00000-0  10582-3 0  9992
2 43042  51.6383 191.2616 0004599 338.7127  21.3666 15.39570957 47629
AEROCUBE 7C             
1 43043U 17071G   18285.18302319  .00003268  00000-0  91750-4 0  9996
2 43043  51.6385 191.2685 0004734 340.3612  19.7189 15.39573225 47595
CHEFSAT                 
1 43044U 17071H   18284.39425295  .00007329  00000-0  18477-3 0  9994
2 43044  51.6393 193.5454 0004555 337.5428  22.5357 15.40935977 47494
ASGARDIA 1              
1 43049U 17071N   18284.37549043  .00005190  00000-0  13925-3 0  9992
2 43049  51.6389 194.8869 0002462   5.9881 354.1132 15.39680683 47463
ISARA                   
1 43050U 17071P   18285.12466652  .00006404  00000-0  16403-3 0  9995
2 43050  51.6386 190.1591 0002348   8.5204 351.5820 15.40687986 47598
FAUNA                   
1 43052U 17071R   18285.13135899  .00004460  00000-0  12038-3 0  9994
2 43052  51.6390 190.9462 0002355   5.4668 354.6342 15.39863700 47588
CORVUS BC3              
1 43118U 18004H   18284.41899875  .00001091  00000-0  50226-4 0  9994
2 43118  97.5210 347.1701 0011872  54.2276 306.0062 15.22434655 41392
MICROMAS-2A             
1 43131U 18004W   18285.24894216  .00002349  00000-0  10222-3 0  9993
2 43131  97.5218 348.2392 0010932  55.1523 305.0740 15.23205561 41535
GOMX4-B                 
1 43196U 18015E   18284.90832920  .00000558  00000-0  26012-4 0  9997
2 43196  97.3607  51.5539 0020266 105.1606 255.1872 15.23768040 38300
GOMX4-A                 
1 43197U 18015F   18285.44224380  .00000733  00000-0  33228-4 0  9995
2 43197  97.3622  52.0833 0020967 104.1816 325.6634 15.23789300 38391
1KUNS-PF                
1 43466U 98067NP  18284.80913398  .00016244  00000-0  21710-3 0  9998
2 43466  51.6383 154.7031 0001127 146.5790 213.5274 15.58201056 23861
UBAKUSAT                
1 43467U 98067NQ  18285.09349049  .00011392  00000-0  15854-3 0  9998
2 43467  51.6383 153.6056 0002779 189.6694 170.4245 15.57469434 23912
BATSU-CS1 (IRAZU)       
1 43468U 98067NR  18284.07595526  .00020556  00000-0  26711-3 0  9995
2 43468  51.6385 158.0581 0001236 140.7382 219.3700 15.58769630123749
CUBERRT                 
1 43546U 98067NU  18285.09997624  .00013209  00000-0  19042-3 0  9996
2 43546  51.6384 155.1381 0005166 268.4157  91.6243 15.56342394 14020
TEMPEST-D               
1 43547U 98067NV  18285.11761201  .00005934  00000-0  92398-4 0  9992
2 43547  51.6383 155.2547 0005200 272.1217  87.9179 15.55432148 13709
RAINCUBE                
1 43548U 98067NW  18285.10995580  .00012401  00000-0  18171-3 0  9994
2 43548  51.6380 155.2040 0005075 278.3727  81.6689 15.55963849 14153
HALOSAT                 
1 43549U 98067NX  18285.11035209  .00013583  00000-0  19836-3 0  9990
2 43549  51.6381 155.2069 0005108 280.6205  79.4211 15.55959974 13711
ENDUROSAT ONE           
1 43551U 98067NZ  18285.08987444  .00013123  00000-0  18857-3 0  9998
2 43551  51.6378 155.0699 0005488 287.8331  72.2062 15.56435904 14121
EQUISAT                 
1 43552U 98067PA  18284.58061206  .00012761  00000-0  18500-3 0  9994
2 43552  51.6382 157.6701 0005743 287.1039  72.9323 15.56221690 14000
AEROCUBE 12A            
1 43556U 18046C   18285.12517813  .00001187  00000-0  55790-4 0  9991
2 43556  51.6403 173.0482 0007707 257.4283 102.5835 15.27893785 13396
AEROCUBE 12B            
1 43557U 18046D   18285.12574902  .00000863  00000-0  44088-4 0  9992
2 43557  51.6403 173.0519 0007734 257.4867 102.5247 15.27862497 13344
UITMSAT-1               
1 43589U 98067PD  18284.74523078  .00012918  00000-0  19011-3 0  9994
2 43589  51.6379 157.2664 0005096 297.7910  62.2564 15.55800055  9769
MAYA-1                  
1 43590U 98067PE  18284.74410270  .00013039  00000-0  19164-3 0  9999
2 43590  51.6379 157.2591 0005172 298.7423  61.3049 15.55827567  9692
BHUTAN-1                
1 43591U 98067PF  18284.03604885  .00012701  00000-0  18672-3 0  9997
2 43591  51.6382 160.7806 0005245 297.5011  62.5446 15.55847815  9586
SIRIUSSAT-1             
1 43595U 98067PG  18285.08198720  .00011747  00000-0  17595-3 0  9995
2 43595  51.6381 155.7611 0003153 239.1137 120.9544 15.55425849  8928
SIRIUSSAT-2             
1 43596U 98067PH  18285.08708937  .00011445  00000-0  17251-3 0  9997
2 43596  51.6389 155.8011 0003758 245.1740 114.8860 15.55280813  8923
TANUSHA-3               
1 43597U 98067PJ  18285.08381717  .00014144  00000-0  20996-3 0  9990
2 43597  51.6369 155.7687 0003045 257.3612 102.7039 15.55478389  8923
SURFSAT                 
1 43614U 18070B   18285.48726190  .00003821  00000-0  10785-3 0  9993
2 43614  93.0249 260.6633 0015985 176.1903 183.9473 15.36311035  4139
CP-7 (DAVE)             
1 43615U 18070C   18285.48708629  .00003732  00000-0  10532-3 0  9992
2 43615  93.0250 260.6645 0016015 175.4629 184.6769 15.36318724  4135
ELFIN-B                 
1 43616U 18070D   18284.63930178 -.00000006  00000-0  00000+0 0  9992
2 43616  93.0241 260.3007 0016096 185.8357 174.2864 15.36364991  4001
ELFIN-A                 
1 43617U 18070E   18285.35539261 -.00000006  00000-0  00000+0 0  9991
2 43617  93.0293 260.6197 0016724 176.3314 183.8441 15.36402053  4119
